CCSDS_OMM_VERS = 2.0
CREATION_DATE  = 
ORIGINATOR     = 

OBJECT_NAME    = UNKNOWN
OBJECT_ID      = 
CENTER_NAME    = EARTH
REF_FRAME      = TEME
TIME_SYSTEM    = UTC
MEAN_ELEMENT_THEORY = SGP/SGP4

EPOCH          = 2026-03-21T01:58:46.018848
MEAN_MOTION    = 11.64942075
ECCENTRICITY   = .07624426
INCLINATION    = 65.7645
RA_OF_ASC_NODE = 14.6062
ARG_OF_PERICENTER = 271.3859
MEAN_ANOMALY   = 79.9953

EPHEMERIS_TYPE = 0
CLASSIFICATION_TYPE = U
NORAD_CAT_ID   = 270185
ELEMENT_SET_NO = 999
REV_AT_EPOCH   = 26866
BSTAR          = -.1538099E-2
MEAN_MOTION_DOT = -.216E-5
MEAN_MOTION_DDOT = 0

CCSDS_OMM_VERS = 2.0
CREATION_DATE  = 
ORIGINATOR     = 

OBJECT_NAME    = UNKNOWN
OBJECT_ID      = 
CENTER_NAME    = EARTH
REF_FRAME      = TEME
TIME_SYSTEM    = UTC
MEAN_ELEMENT_THEORY = SGP/SGP4

EPOCH          = 2026-03-24T02:30:13.469184
MEAN_MOTION    = 13.09061566
ECCENTRICITY   = .00227785
INCLINATION    = 90.3343
RA_OF_ASC_NODE = 31.8391
ARG_OF_PERICENTER = 164.4939
MEAN_ANOMALY   = 195.6891

EPHEMERIS_TYPE = 0
CLASSIFICATION_TYPE = U
NORAD_CAT_ID   = 270186
ELEMENT_SET_NO = 999
REV_AT_EPOCH   = 30154
BSTAR          = -.15505792E-3
MEAN_MOTION_DOT = -.46E-6
MEAN_MOTION_DDOT = 0

CCSDS_OMM_VERS = 2.0
CREATION_DATE  = 
ORIGINATOR     = 

OBJECT_NAME    = UNKNOWN
OBJECT_ID      = 
CENTER_NAME    = EARTH
REF_FRAME      = TEME
TIME_SYSTEM    = UTC
MEAN_ELEMENT_THEORY = SGP/SGP4

EPOCH          = 2026-03-31T02:03:07.407360
MEAN_MOTION    = 14.46952055
ECCENTRICITY   = .00178642
INCLINATION    = 74.0366
RA_OF_ASC_NODE = 26.1587
ARG_OF_PERICENTER = 82.9525
MEAN_ANOMALY   = 277.3665

EPHEMERIS_TYPE = 0
CLASSIFICATION_TYPE = U
NORAD_CAT_ID   = 270187
ELEMENT_SET_NO = 999
REV_AT_EPOCH   = 6524
BSTAR          = .69499994E-3
MEAN_MOTION_DOT = .2504E-4
MEAN_MOTION_DDOT = 0

CCSDS_OMM_VERS = 2.0
CREATION_DATE  = 
ORIGINATOR     = 

OBJECT_NAME    = UNKNOWN
OBJECT_ID      = 
CENTER_NAME    = EARTH
REF_FRAME      = TEME
TIME_SYSTEM    = UTC
MEAN_ELEMENT_THEORY = SGP/SGP4

EPOCH          = 2026-03-30T14:38:17.087136
MEAN_MOTION    = 12.44728524
ECCENTRICITY   = .07025044
INCLINATION    = 74.3189
RA_OF_ASC_NODE = 202.7772
ARG_OF_PERICENTER = 317.7443
MEAN_ANOMALY   = 37.1452

EPHEMERIS_TYPE = 0
CLASSIFICATION_TYPE = U
NORAD_CAT_ID   = 270188
ELEMENT_SET_NO = 999
REV_AT_EPOCH   = 28659
BSTAR          = .54345734E-2
MEAN_MOTION_DOT = .1842E-4
MEAN_MOTION_DDOT = 0

CCSDS_OMM_VERS = 2.0
CREATION_DATE  = 
ORIGINATOR     = 

OBJECT_NAME    = UNKNOWN
OBJECT_ID      = 
CENTER_NAME    = EARTH
REF_FRAME      = TEME
TIME_SYSTEM    = UTC
MEAN_ELEMENT_THEORY = SGP/SGP4

EPOCH          = 2026-03-09T03:44:07.775520
MEAN_MOTION    = 11.13601189
ECCENTRICITY   = .10684728
INCLINATION    = 63.4120
RA_OF_ASC_NODE = 42.2982
ARG_OF_PERICENTER = 300.5984
MEAN_ANOMALY   = 49.3748

EPHEMERIS_TYPE = 0
CLASSIFICATION_TYPE = U
NORAD_CAT_ID   = 270189
ELEMENT_SET_NO = 999
REV_AT_EPOCH   = 25530
BSTAR          = -.16381043E-3
MEAN_MOTION_DOT = -.63E-6
MEAN_MOTION_DDOT = 0

CCSDS_OMM_VERS = 2.0
CREATION_DATE  = 
ORIGINATOR     = 

OBJECT_NAME    = UNKNOWN
OBJECT_ID      = 
CENTER_NAME    = EARTH
REF_FRAME      = TEME
TIME_SYSTEM    = UTC
MEAN_ELEMENT_THEORY = SGP/SGP4

EPOCH          = 2026-03-31T07:06:49.992480
MEAN_MOTION    = 14.38546651
ECCENTRICITY   = .00331704
INCLINATION    = 98.6266
RA_OF_ASC_NODE = 96.3432
ARG_OF_PERICENTER = 46.4682
MEAN_ANOMALY   = 313.9253

EPHEMERIS_TYPE = 0
CLASSIFICATION_TYPE = U
NORAD_CAT_ID   = 270190
ELEMENT_SET_NO = 999
REV_AT_EPOCH   = 33120
BSTAR          = .2125637E-3
MEAN_MOTION_DOT = .609E-5
MEAN_MOTION_DDOT = 0

CCSDS_OMM_VERS = 2.0
CREATION_DATE  = 
ORIGINATOR     = 

OBJECT_NAME    = UNKNOWN
OBJECT_ID      = 
CENTER_NAME    = EARTH
REF_FRAME      = TEME
TIME_SYSTEM    = UTC
MEAN_ELEMENT_THEORY = SGP/SGP4

EPOCH          = 2026-03-12T01:09:51.075648
MEAN_MOTION    = 12.97953889
ECCENTRICITY   = .00189213
INCLINATION    = 90.2578
RA_OF_ASC_NODE = 4.6806
ARG_OF_PERICENTER = 316.9261
MEAN_ANOMALY   = 43.0378

EPHEMERIS_TYPE = 0
CLASSIFICATION_TYPE = U
NORAD_CAT_ID   = 270192
ELEMENT_SET_NO = 999
REV_AT_EPOCH   = 29745
BSTAR          = .48237916E-2
MEAN_MOTION_DOT = .1418E-4
MEAN_MOTION_DDOT = 0

CCSDS_OMM_VERS = 2.0
CREATION_DATE  = 
ORIGINATOR     = 

OBJECT_NAME    = UNKNOWN
OBJECT_ID      = 
CENTER_NAME    = EARTH
REF_FRAME      = TEME
TIME_SYSTEM    = UTC
MEAN_ELEMENT_THEORY = SGP/SGP4

EPOCH          = 2026-03-24T09:07:15.913056
MEAN_MOTION    = 13.46243514
ECCENTRICITY   = .00461823
INCLINATION    = 100.4369
RA_OF_ASC_NODE = 322.3656
ARG_OF_PERICENTER = 204.2162
MEAN_ANOMALY   = 155.6796

EPHEMERIS_TYPE = 0
CLASSIFICATION_TYPE = U
NORAD_CAT_ID   = 270194
ELEMENT_SET_NO = 999
REV_AT_EPOCH   = 30992
BSTAR          = .2616359E-2
MEAN_MOTION_DOT = .1531E-4
MEAN_MOTION_DDOT = 0

CCSDS_OMM_VERS = 2.0
CREATION_DATE  = 
ORIGINATOR     = 

OBJECT_NAME    = UNKNOWN
OBJECT_ID      = 
CENTER_NAME    = EARTH
REF_FRAME      = TEME
TIME_SYSTEM    = UTC
MEAN_ELEMENT_THEORY = SGP/SGP4

EPOCH          = 2026-03-30T01:05:11.192352
MEAN_MOTION    = 12.96992926
ECCENTRICITY   = .00278746
INCLINATION    = 90.2462
RA_OF_ASC_NODE = 7.1853
ARG_OF_PERICENTER = 216.6389
MEAN_ANOMALY   = 143.2826

EPHEMERIS_TYPE = 0
CLASSIFICATION_TYPE = U
NORAD_CAT_ID   = 270195
ELEMENT_SET_NO = 999
REV_AT_EPOCH   = 29798
BSTAR          = .48128969E-3
MEAN_MOTION_DOT = .146E-5
MEAN_MOTION_DDOT = 0

CCSDS_OMM_VERS = 2.0
CREATION_DATE  = 
ORIGINATOR     = 

OBJECT_NAME    = UNKNOWN
OBJECT_ID      = 
CENTER_NAME    = EARTH
REF_FRAME      = TEME
TIME_SYSTEM    = UTC
MEAN_ELEMENT_THEORY = SGP/SGP4

EPOCH          = 2026-03-24T13:52:09.789312
MEAN_MOTION    = 13.95043365
ECCENTRICITY   = .00543185
INCLINATION    = 64.6970
RA_OF_ASC_NODE = 195.0929
ARG_OF_PERICENTER = 199.0214
MEAN_ANOMALY   = 160.8822

EPHEMERIS_TYPE = 0
CLASSIFICATION_TYPE = U
NORAD_CAT_ID   = 270196
ELEMENT_SET_NO = 999
REV_AT_EPOCH   = 32148
BSTAR          = .47792819E-3
MEAN_MOTION_DOT = .559E-5
MEAN_MOTION_DDOT = 0

CCSDS_OMM_VERS = 2.0
CREATION_DATE  = 
ORIGINATOR     = 

OBJECT_NAME    = UNKNOWN
OBJECT_ID      = 
CENTER_NAME    = EARTH
REF_FRAME      = TEME
TIME_SYSTEM    = UTC
MEAN_ELEMENT_THEORY = SGP/SGP4

EPOCH          = 2026-03-29T02:25:16.195296
MEAN_MOTION    = 13.87138930
ECCENTRICITY   = .03629208
INCLINATION    = 97.5759
RA_OF_ASC_NODE = 34.4921
ARG_OF_PERICENTER = 310.3183
MEAN_ANOMALY   = 46.6786

EPHEMERIS_TYPE = 0
CLASSIFICATION_TYPE = U
NORAD_CAT_ID   = 270197
ELEMENT_SET_NO = 999
REV_AT_EPOCH   = 31815
BSTAR          = .20682597E-2
MEAN_MOTION_DOT = .4053E-4
MEAN_MOTION_DDOT = 0

CCSDS_OMM_VERS = 2.0
CREATION_DATE  = 
ORIGINATOR     = 

OBJECT_NAME    = UNKNOWN
OBJECT_ID      = 
CENTER_NAME    = EARTH
REF_FRAME      = TEME
TIME_SYSTEM    = UTC
MEAN_ELEMENT_THEORY = SGP/SGP4

EPOCH          = 2026-03-30T10:40:23.336256
MEAN_MOTION    = 11.18711068
ECCENTRICITY   = .02179044
INCLINATION    = 64.7472
RA_OF_ASC_NODE = 349.4195
ARG_OF_PERICENTER = 180.9724
MEAN_ANOMALY   = 179.0797

EPHEMERIS_TYPE = 0
CLASSIFICATION_TYPE = U
NORAD_CAT_ID   = 270198
ELEMENT_SET_NO = 999
REV_AT_EPOCH   = 2589
BSTAR          = .80085142E-3
MEAN_MOTION_DOT = -.15E-6
MEAN_MOTION_DDOT = 0

CCSDS_OMM_VERS = 2.0
CREATION_DATE  = 
ORIGINATOR     = 

OBJECT_NAME    = UNKNOWN
OBJECT_ID      = 
CENTER_NAME    = EARTH
REF_FRAME      = TEME
TIME_SYSTEM    = UTC
MEAN_ELEMENT_THEORY = SGP/SGP4

EPOCH          = 2026-03-27T03:42:08.292096
MEAN_MOTION    = 13.12711538
ECCENTRICITY   = .06005795
INCLINATION    = 72.7232
RA_OF_ASC_NODE = 243.6469
ARG_OF_PERICENTER = 182.8168
MEAN_ANOMALY   = 176.9480

EPHEMERIS_TYPE = 0
CLASSIFICATION_TYPE = U
NORAD_CAT_ID   = 270199
ELEMENT_SET_NO = 999
REV_AT_EPOCH   = 30081
BSTAR          = .28215925E-2
MEAN_MOTION_DOT = .2507E-4
MEAN_MOTION_DDOT = 0

CCSDS_OMM_VERS = 2.0
CREATION_DATE  = 
ORIGINATOR     = 

OBJECT_NAME    = UNKNOWN
OBJECT_ID      = 
CENTER_NAME    = EARTH
REF_FRAME      = TEME
TIME_SYSTEM    = UTC
MEAN_ELEMENT_THEORY = SGP/SGP4

EPOCH          = 2026-03-30T01:37:47.168256
MEAN_MOTION    = 12.95759030
ECCENTRICITY   = .00342114
INCLINATION    = 90.2548
RA_OF_ASC_NODE = 12.1289
ARG_OF_PERICENTER = 20.8699
MEAN_ANOMALY   = 339.3809

EPHEMERIS_TYPE = 0
CLASSIFICATION_TYPE = U
NORAD_CAT_ID   = 270200
ELEMENT_SET_NO = 999
REV_AT_EPOCH   = 29791
BSTAR          = .13517551E-2
MEAN_MOTION_DOT = .391E-5
MEAN_MOTION_DDOT = 0

CCSDS_OMM_VERS = 2.0
CREATION_DATE  = 
ORIGINATOR     = 

OBJECT_NAME    = UNKNOWN
OBJECT_ID      = 
CENTER_NAME    = EARTH
REF_FRAME      = TEME
TIME_SYSTEM    = UTC
MEAN_ELEMENT_THEORY = SGP/SGP4

EPOCH          = 2026-03-30T22:29:21.393888
MEAN_MOTION    = 14.03106084
ECCENTRICITY   = .00315217
INCLINATION    = 82.5344
RA_OF_ASC_NODE = 342.2364
ARG_OF_PERICENTER = 339.6992
MEAN_ANOMALY   = 20.2923

EPHEMERIS_TYPE = 0
CLASSIFICATION_TYPE = U
NORAD_CAT_ID   = 270202
ELEMENT_SET_NO = 999
REV_AT_EPOCH   = 32281
BSTAR          = .2096562E-2
MEAN_MOTION_DOT = .3289E-4
MEAN_MOTION_DDOT = 0

CCSDS_OMM_VERS = 2.0
CREATION_DATE  = 
ORIGINATOR     = 

OBJECT_NAME    = UNKNOWN
OBJECT_ID      = 
CENTER_NAME    = EARTH
REF_FRAME      = TEME
TIME_SYSTEM    = UTC
MEAN_ELEMENT_THEORY = SGP/SGP4

EPOCH          = 2026-03-21T12:06:43.475040
MEAN_MOTION    = 13.00663660
ECCENTRICITY   = .00358986
INCLINATION    = 90.2529
RA_OF_ASC_NODE = 10.4904
ARG_OF_PERICENTER = 130.8049
MEAN_ANOMALY   = 229.6196

EPHEMERIS_TYPE = 0
CLASSIFICATION_TYPE = U
NORAD_CAT_ID   = 270203
ELEMENT_SET_NO = 999
REV_AT_EPOCH   = 29910
BSTAR          = .44601827E-3
MEAN_MOTION_DOT = .144E-5
MEAN_MOTION_DDOT = 0

